DEAR-5                  
1 67070U 25296B   26003.95546377  .00009199  00000+0  46322-3 0  9998
2 67070  41.3575 334.8443 0019778 176.5222 183.5740 15.17062267  3326
RAISE-4                 
1 67073U 25297B   26003.87287794  .00007832  00000+0  52073-3 0  9990
2 67073  97.4867 155.8279 0011419 237.2671 122.7457 15.07386987  3125
ELECTRON KICK STAGE R/B 
1 67074U 25297C   26003.94313317  .00539825  90170-4  22001-2 0  9991
2 67074  97.4772 157.5962 0161461 188.6951 171.1508 15.68882371  3245
STARLINK-36230          
1 67075U 25298A   26003.91668981 -.00015794  00000+0 -25446-3 0  9991
2 67075  69.9990 187.4888 0003700 277.3623  49.3838 15.52521879  4546
STARLINK-36240          
1 67076U 25298B   26003.91668981 -.00021490  00000+0 -34743-3 0  9992
2 67076  69.9989 187.4865 0003491 270.0733  58.5892 15.52525384  4546
STARLINK-36243          
1 67077U 25298C   26003.91668981 -.00018451  00000+0 -29784-3 0  9995
2 67077  69.9988 187.4841 0003256 272.2731  58.3076 15.52522921  4547
STARLINK-36236          
1 67078U 25298D   26003.91668981 -.00024860  00000+0 -40251-3 0  9999
2 67078  69.9989 187.4815 0003321 276.8197  55.6732 15.52527087  4546
STARLINK-36159          
1 67079U 25298E   26003.91668981  .00112587  00000+0  25428-2 0  9990
2 67079  69.9994 187.6317 0003431 272.3854 288.5019 15.42643704  4544
STARLINK-36158          
1 67080U 25298F   26003.91668981 -.00030332  00000+0 -49197-3 0  9991
2 67080  69.9989 187.4770 0003467 274.7852  61.5406 15.52530348  4486
STARLINK-35864          
1 67081U 25298G   26003.91668981 -.01262952  00000+0 -22295-1 0  9996
2 67081  69.9992 187.4764 0003690 279.7749  58.4036 15.52903078  4547
STARLINK-36035          
1 67082U 25298H   26003.91668981 -.02028393  00000+0 -39835-1 0  9995
2 67082  69.9998 187.4764 0003483 274.8629  63.5307 15.50392779  4543
STARLINK-36170          
1 67083U 25298J   26003.91668981 -.00034939  00000+0 -56738-3 0  9990
2 67083  69.9989 187.4705 0003420 273.3197  68.7552 15.52533411  4545
