CCSDS_OMM_VERS = 2.0
CREATION_DATE  = 
ORIGINATOR     = 

OBJECT_NAME    = DEAR-5
OBJECT_ID      = 2025-296B
CENTER_NAME    = EARTH
REF_FRAME      = TEME
TIME_SYSTEM    = UTC
MEAN_ELEMENT_THEORY = SGP/SGP4

EPOCH          = 2026-01-03T22:55:52.069728
MEAN_MOTION    = 15.17062267
ECCENTRICITY   = .0019778
INCLINATION    = 41.3575
RA_OF_ASC_NODE = 334.8443
ARG_OF_PERICENTER = 176.5222
MEAN_ANOMALY   = 183.5740

EPHEMERIS_TYPE = 0
CLASSIFICATION_TYPE = U
NORAD_CAT_ID   = 67070
ELEMENT_SET_NO = 999
REV_AT_EPOCH   = 332
BSTAR          = .46321971E-3
MEAN_MOTION_DOT = .9199E-4
MEAN_MOTION_DDOT = 0

CCSDS_OMM_VERS = 2.0
CREATION_DATE  = 
ORIGINATOR     = 

OBJECT_NAME    = RAISE-4
OBJECT_ID      = 2025-297B
CENTER_NAME    = EARTH
REF_FRAME      = TEME
TIME_SYSTEM    = UTC
MEAN_ELEMENT_THEORY = SGP/SGP4

EPOCH          = 2026-01-03T20:56:56.654016
MEAN_MOTION    = 15.07386987
ECCENTRICITY   = .00114191
INCLINATION    = 97.4867
RA_OF_ASC_NODE = 155.8279
ARG_OF_PERICENTER = 237.2671
MEAN_ANOMALY   = 122.7457

EPHEMERIS_TYPE = 0
CLASSIFICATION_TYPE = U
NORAD_CAT_ID   = 67073
ELEMENT_SET_NO = 999
REV_AT_EPOCH   = 312
BSTAR          = .52072684E-3
MEAN_MOTION_DOT = .7832E-4
MEAN_MOTION_DDOT = 0

CCSDS_OMM_VERS = 2.0
CREATION_DATE  = 
ORIGINATOR     = 

OBJECT_NAME    = ELECTRON KICK STAGE R/B
OBJECT_ID      = 2025-297C
CENTER_NAME    = EARTH
REF_FRAME      = TEME
TIME_SYSTEM    = UTC
MEAN_ELEMENT_THEORY = SGP/SGP4

EPOCH          = 2026-01-03T22:38:06.705888
MEAN_MOTION    = 15.68882371
ECCENTRICITY   = .0161461
INCLINATION    = 97.4772
RA_OF_ASC_NODE = 157.5962
ARG_OF_PERICENTER = 188.6951
MEAN_ANOMALY   = 171.1508

EPHEMERIS_TYPE = 0
CLASSIFICATION_TYPE = U
NORAD_CAT_ID   = 67074
ELEMENT_SET_NO = 999
REV_AT_EPOCH   = 324
BSTAR          = .22001475E-2
MEAN_MOTION_DOT = .539825E-2
MEAN_MOTION_DDOT = .90170454E-4

CCSDS_OMM_VERS = 2.0
CREATION_DATE  = 
ORIGINATOR     = 

OBJECT_NAME    = STARLINK-36230
OBJECT_ID      = 2025-298A
CENTER_NAME    = EARTH
REF_FRAME      = TEME
TIME_SYSTEM    = UTC
MEAN_ELEMENT_THEORY = SGP/SGP4

EPOCH          = 2026-01-03T22:00:01.999584
MEAN_MOTION    = 15.52521879
ECCENTRICITY   = .00037009
INCLINATION    = 69.9990
RA_OF_ASC_NODE = 187.4888
ARG_OF_PERICENTER = 277.3623
MEAN_ANOMALY   = 49.3838

EPHEMERIS_TYPE = 0
CLASSIFICATION_TYPE = U
NORAD_CAT_ID   = 67075
ELEMENT_SET_NO = 999
REV_AT_EPOCH   = 454
BSTAR          = -.2544565E-3
MEAN_MOTION_DOT = -.15794E-3
MEAN_MOTION_DDOT = 0

CCSDS_OMM_VERS = 2.0
CREATION_DATE  = 
ORIGINATOR     = 

OBJECT_NAME    = STARLINK-36240
OBJECT_ID      = 2025-298B
CENTER_NAME    = EARTH
REF_FRAME      = TEME
TIME_SYSTEM    = UTC
MEAN_ELEMENT_THEORY = SGP/SGP4

EPOCH          = 2026-01-03T22:00:01.999584
MEAN_MOTION    = 15.52525384
ECCENTRICITY   = .00034918
INCLINATION    = 69.9989
RA_OF_ASC_NODE = 187.4865
ARG_OF_PERICENTER = 270.0733
MEAN_ANOMALY   = 58.5892

EPHEMERIS_TYPE = 0
CLASSIFICATION_TYPE = U
NORAD_CAT_ID   = 67076
ELEMENT_SET_NO = 999
REV_AT_EPOCH   = 454
BSTAR          = -.34743186E-3
MEAN_MOTION_DOT = -.2149E-3
MEAN_MOTION_DDOT = 0

CCSDS_OMM_VERS = 2.0
CREATION_DATE  = 
ORIGINATOR     = 

OBJECT_NAME    = STARLINK-36243
OBJECT_ID      = 2025-298C
CENTER_NAME    = EARTH
REF_FRAME      = TEME
TIME_SYSTEM    = UTC
MEAN_ELEMENT_THEORY = SGP/SGP4

EPOCH          = 2026-01-03T22:00:01.999584
MEAN_MOTION    = 15.52522921
ECCENTRICITY   = .00032567
INCLINATION    = 69.9988
RA_OF_ASC_NODE = 187.4841
ARG_OF_PERICENTER = 272.2731
MEAN_ANOMALY   = 58.3076

EPHEMERIS_TYPE = 0
CLASSIFICATION_TYPE = U
NORAD_CAT_ID   = 67077
ELEMENT_SET_NO = 999
REV_AT_EPOCH   = 454
BSTAR          = -.29784309E-3
MEAN_MOTION_DOT = -.18451E-3
MEAN_MOTION_DDOT = 0

CCSDS_OMM_VERS = 2.0
CREATION_DATE  = 
ORIGINATOR     = 

OBJECT_NAME    = STARLINK-36236
OBJECT_ID      = 2025-298D
CENTER_NAME    = EARTH
REF_FRAME      = TEME
TIME_SYSTEM    = UTC
MEAN_ELEMENT_THEORY = SGP/SGP4

EPOCH          = 2026-01-03T22:00:01.999584
MEAN_MOTION    = 15.52527087
ECCENTRICITY   = .00033213
INCLINATION    = 69.9989
RA_OF_ASC_NODE = 187.4815
ARG_OF_PERICENTER = 276.8197
MEAN_ANOMALY   = 55.6732

EPHEMERIS_TYPE = 0
CLASSIFICATION_TYPE = U
NORAD_CAT_ID   = 67078
ELEMENT_SET_NO = 999
REV_AT_EPOCH   = 454
BSTAR          = -.4025057E-3
MEAN_MOTION_DOT = -.2486E-3
MEAN_MOTION_DDOT = 0

CCSDS_OMM_VERS = 2.0
CREATION_DATE  = 
ORIGINATOR     = 

OBJECT_NAME    = STARLINK-36159
OBJECT_ID      = 2025-298E
CENTER_NAME    = EARTH
REF_FRAME      = TEME
TIME_SYSTEM    = UTC
MEAN_ELEMENT_THEORY = SGP/SGP4

EPOCH          = 2026-01-03T22:00:01.999584
MEAN_MOTION    = 15.42643704
ECCENTRICITY   = .00034316
INCLINATION    = 69.9994
RA_OF_ASC_NODE = 187.6317
ARG_OF_PERICENTER = 272.3854
MEAN_ANOMALY   = 288.5019

EPHEMERIS_TYPE = 0
CLASSIFICATION_TYPE = U
NORAD_CAT_ID   = 67079
ELEMENT_SET_NO = 999
REV_AT_EPOCH   = 454
BSTAR          = .25428194E-2
MEAN_MOTION_DOT = .112587E-2
MEAN_MOTION_DDOT = 0

CCSDS_OMM_VERS = 2.0
CREATION_DATE  = 
ORIGINATOR     = 

OBJECT_NAME    = STARLINK-36158
OBJECT_ID      = 2025-298F
CENTER_NAME    = EARTH
REF_FRAME      = TEME
TIME_SYSTEM    = UTC
MEAN_ELEMENT_THEORY = SGP/SGP4

EPOCH          = 2026-01-03T22:00:01.999584
MEAN_MOTION    = 15.52530348
ECCENTRICITY   = .00034672
INCLINATION    = 69.9989
RA_OF_ASC_NODE = 187.4770
ARG_OF_PERICENTER = 274.7852
MEAN_ANOMALY   = 61.5406

EPHEMERIS_TYPE = 0
CLASSIFICATION_TYPE = U
NORAD_CAT_ID   = 67080
ELEMENT_SET_NO = 999
REV_AT_EPOCH   = 448
BSTAR          = -.49197384E-3
MEAN_MOTION_DOT = -.30332E-3
MEAN_MOTION_DDOT = 0

CCSDS_OMM_VERS = 2.0
CREATION_DATE  = 
ORIGINATOR     = 

OBJECT_NAME    = STARLINK-35864
OBJECT_ID      = 2025-298G
CENTER_NAME    = EARTH
REF_FRAME      = TEME
TIME_SYSTEM    = UTC
MEAN_ELEMENT_THEORY = SGP/SGP4

EPOCH          = 2026-01-03T22:00:01.999584
MEAN_MOTION    = 15.52903078
ECCENTRICITY   = .00036903
INCLINATION    = 69.9992
RA_OF_ASC_NODE = 187.4764
ARG_OF_PERICENTER = 279.7749
MEAN_ANOMALY   = 58.4036

EPHEMERIS_TYPE = 0
CLASSIFICATION_TYPE = U
NORAD_CAT_ID   = 67081
ELEMENT_SET_NO = 999
REV_AT_EPOCH   = 454
BSTAR          = -.22295484E-1
MEAN_MOTION_DOT = -.1262952E-1
MEAN_MOTION_DDOT = 0

CCSDS_OMM_VERS = 2.0
CREATION_DATE  = 
ORIGINATOR     = 

OBJECT_NAME    = STARLINK-36035
OBJECT_ID      = 2025-298H
CENTER_NAME    = EARTH
REF_FRAME      = TEME
TIME_SYSTEM    = UTC
MEAN_ELEMENT_THEORY = SGP/SGP4

EPOCH          = 2026-01-03T22:00:01.999584
MEAN_MOTION    = 15.50392779
ECCENTRICITY   = .00034837
INCLINATION    = 69.9998
RA_OF_ASC_NODE = 187.4764
ARG_OF_PERICENTER = 274.8629
MEAN_ANOMALY   = 63.5307

EPHEMERIS_TYPE = 0
CLASSIFICATION_TYPE = U
NORAD_CAT_ID   = 67082
ELEMENT_SET_NO = 999
REV_AT_EPOCH   = 454
BSTAR          = -.39834612E-1
MEAN_MOTION_DOT = -.2028393E-1
MEAN_MOTION_DDOT = 0

CCSDS_OMM_VERS = 2.0
CREATION_DATE  = 
ORIGINATOR     = 

OBJECT_NAME    = STARLINK-36170
OBJECT_ID      = 2025-298J
CENTER_NAME    = EARTH
REF_FRAME      = TEME
TIME_SYSTEM    = UTC
MEAN_ELEMENT_THEORY = SGP/SGP4

EPOCH          = 2026-01-03T22:00:01.999584
MEAN_MOTION    = 15.52533411
ECCENTRICITY   = .00034206
INCLINATION    = 69.9989
RA_OF_ASC_NODE = 187.4705
ARG_OF_PERICENTER = 273.3197
MEAN_ANOMALY   = 68.7552

EPHEMERIS_TYPE = 0
CLASSIFICATION_TYPE = U
NORAD_CAT_ID   = 67083
ELEMENT_SET_NO = 999
REV_AT_EPOCH   = 454
BSTAR          = -.5673763E-3
MEAN_MOTION_DOT = -.34939E-3
MEAN_MOTION_DDOT = 0

